GOES 1 (SMS-C)          
1 08366U 75100A   24111.55413209 -.00000009  00000+0  00000+0 0  9992
2 08366   6.6116 287.2697 0001514 330.4418  30.8012  1.00307145177178
